BEIJING 1               
1 28890U 05043A   22275.34760199  .00000316  00000+0  73136-4 0  9999
2 28890  98.1310  35.8590 0014965 194.9527 165.1249 14.61499967902750
HJ-1A                   
1 33320U 08041A   22275.53059719  .00000438  00000+0  67474-4 0  9997
2 33320  97.6703 303.5326 0019649 242.3454 117.5772 14.77925824758201
HJ-1B                   
1 33321U 08041B   22275.54962175  .00000936  00000+0  13582-3 0  9991
2 33321  97.6865 307.3312 0032781 262.0367  97.7140 14.77897853758200
YAOGAN 4                
1 33446U 08061A   22275.38560102  .00000803  00000+0  11948-3 0  9994
2 33446  97.8232 212.2934 0016966 143.7024 216.5341 14.77483122745383
DEIMOS-1                
1 35681U 09041A   22275.52035167  .00000349  00000+0  62824-4 0  9995
2 35681  97.7027 121.0459 0000556 163.4596 196.6643 14.72119353707521
UK-DMC 2                
1 35683U 09041C   22275.45574080  .00000583  00000+0  10139-3 0  9992
2 35683  97.7065  82.7960 0001013  70.2190 289.9136 14.71508381707243
RISAT 1                 
1 38248U 12017A   22275.52713855  .00004554  00000+0  26501-3 0  9994
2 38248  97.5535 285.7564 0002382 236.6547 123.4455 15.12542387575005
DMC3-FM1                
1 40715U 15032A   22275.53780701  .00000489  00000+0  67839-4 0  9994
2 40715  97.8300 160.1697 0006226 157.7010 202.4471 14.82205450389150
DMC3-FM2                
1 40716U 15032B   22275.49335200  .00000486  00000+0  67483-4 0  9992
2 40716  97.8339 160.8222 0008010 163.6346 196.5110 14.82197852389154
DMC3-FM3                
1 40717U 15032C   22275.51443782  .00000489  00000+0  67797-4 0  9992
2 40717  97.8375 161.8015 0010056 163.4078 196.7460 14.82225527389150
